{
  "norad_id": 66457,
  "name": "STARLINK-35466",
  "history": [
    {
      "epoch": "2026-03-28T15:34:22.912320",
      "apogee_km": 483.96456949157255,
      "perigee_km": 481.9693604585582,
      "latitude_deg": 30.347731982352997,
      "longitude_deg": 167.99212479987182,
      "semi_major_axis_km": 6861.103964975065,
      "eccentricity": 0.0001454,
      "inclination_deg": 43.0027,
      "raan_deg": 189.3055,
      "arg_perigee_deg": 271.6094,
      "mean_anomaly_deg": 88.4592,
      "mean_motion_rev_day": 15.27607429
    },
    {
      "epoch": "2026-03-28T23:25:09.918336",
      "apogee_km": 483.9267064744017,
      "perigee_km": 482.10026821467,
      "latitude_deg": 41.50545181441468,
      "longitude_deg": -160.6223129602149,
      "semi_major_axis_km": 6861.150487344536,
      "eccentricity": 0.0001331,
      "inclination_deg": 43.0055,
      "raan_deg": 187.4554,
      "arg_perigee_deg": 309.9044,
      "mean_anomaly_deg": 50.169,
      "mean_motion_rev_day": 15.27591892
    }
  ]
}